[{"OBJECT_NAME":"STARLINK-5668","OBJECT_ID":"2023-013V","EPOCH":"2026-03-09T01:07:14.318400","MEAN_MOTION":15.02534619,"ECCENTRICITY":0.00011645,"INCLINATION":43.0045,"RA_OF_ASC_NODE":303.7464,"ARG_OF_PERICENTER":265.9049,"MEAN_ANOMALY":94.1661,"EPHEMERIS_TYPE":0,"CLASSIFICATION_TYPE":"U","NORAD_CAT_ID":55350,"ELEMENT_SET_NO":999,"REV_AT_EPOCH":17161,"BSTAR":-2.663132e-6,"MEAN_MOTION_DOT":-2.4e-6,"MEAN_MOTION_DDOT":0},{"OBJECT_NAME":"FENGYUN 1C DEB","OBJECT_ID":"1999-025BYF","EPOCH":"2026-02-08T04:35:15.972576","MEAN_MOTION":14.66466333,"ECCENTRICITY":0.01751215,"INCLINATION":99.0616,"RA_OF_ASC_NODE":209.5417,"ARG_OF_PERICENTER":124.4609,"MEAN_ANOMALY":237.3278,"EPHEMERIS_TYPE":0,"CLASSIFICATION_TYPE":"U","NORAD_CAT_ID":31540,"ELEMENT_SET_NO":999,"REV_AT_EPOCH":99143,"BSTAR":0.0011063664,"MEAN_MOTION_DOT":7.645e-5,"MEAN_MOTION_DDOT":0}]
